start=new Date('2021-08-31T00:00:00.000Z').valueOf();
sats=[{"NORAD_CAT_ID":"46798","OBJECT_NAME":"STARLINK-1948","MEAN_MOTION":"15.06402794","PERIOD":"95.592","ARG_OF_PERICENTER":"57.3014","ELEMENT_SET_NO":"999","LAUNCH_DATE":"2020-10-24","FILE":"3105635","MEAN_ELEMENT_THEORY":"SGP4","ECCENTRICITY":"0.00016610","BSTAR":"-0.00008143900000","OBJECT_ID":"2020-074BM","OBJECT_TYPE":"PAYLOAD","REF_FRAME":"TEME","CLASSIFICATION_TYPE":"U","CENTER_NAME":"EARTH","SITE":"AFETR","TLE_LINE1":"1 46798U 20074BM  21242.35731706 -.00001494  00000-0 -81439-4 0  9999","EPOCH":"2021-08-30T08:34:32.193984","TLE_LINE2":"2 46798  53.0530 194.2363 0001661  57.3014 302.8134 15.06402794 47420","COUNTRY_CODE":"US","MEAN_ANOMALY":"302.8134","MEAN_MOTION_DOT":"-0.00001494","APOAPSIS":"548.355","GP_ID":"183732756","REV_AT_EPOCH":"4742","EPHEMERIS_TYPE":"0","RCS_SIZE":"LARGE","MEAN_MOTION_DDOT":"0.0000000000000","TIME_SYSTEM":"UTC","RA_OF_ASC_NODE":"194.2363","PERIAPSIS":"546.055","DECAY_DATE":null,"INCLINATION":"53.0530","SEMIMAJOR_AXIS":"6925.340"},{"OBJECT_ID":"2020-088A","CLASSIFICATION_TYPE":"U","OBJECT_TYPE":"PAYLOAD","REF_FRAME":"TEME","CENTER_NAME":"EARTH","TLE_LINE1":"1 47122U 20088A   21242.04633022 -.00000389  00000-0 -72156-5 0  9993","SITE":"AFETR","EPOCH":"2021-08-30T01:06:42.931008","NORAD_CAT_ID":"47122","OBJECT_NAME":"STARLINK-1777","ARG_OF_PERICENTER":"57.7914","PERIOD":"95.592","MEAN_MOTION":"15.06395833","ELEMENT_SET_NO":"999","FILE":"3105635","LAUNCH_DATE":"2020-11-25","MEAN_ELEMENT_THEORY":"SGP4","ECCENTRICITY":"0.00017280","BSTAR":"-0.00000721560000","EPHEMERIS_TYPE":"0","RCS_SIZE":"LARGE","MEAN_MOTION_DDOT":"0.0000000000000","TIME_SYSTEM":"UTC","RA_OF_ASC_NODE":"160.6284","PERIAPSIS":"546.030","DECAY_DATE":null,"INCLINATION":"53.0525","SEMIMAJOR_AXIS":"6925.361","TLE_LINE2":"2 47122  53.0525 160.6284 0001728  57.7914 302.3242 15.06395833 42742","COUNTRY_CODE":"US","MEAN_ANOMALY":"302.3242","APOAPSIS":"548.423","MEAN_MOTION_DOT":"-0.00000389","GP_ID":"183731047","REV_AT_EPOCH":"4274"},{"SEMIMAJOR_AXIS":"6925.427","INCLINATION":"53.0552","DECAY_DATE":null,"RA_OF_ASC_NODE":"163.6147","PERIAPSIS":"546.240","TIME_SYSTEM":"UTC","RCS_SIZE":"LARGE","MEAN_MOTION_DDOT":"0.0000000000000","EPHEMERIS_TYPE":"0","REV_AT_EPOCH":"4304","GP_ID":"183734951","MEAN_MOTION_DOT":"-0.00001375","APOAPSIS":"548.343","MEAN_ANOMALY":"294.0605","COUNTRY_CODE":"US","TLE_LINE2":"2 47124  53.0552 163.6147 0001518  66.0543 294.0605 15.06374527 43044","EPOCH":"2021-08-30T11:54:55.402848","CENTER_NAME":"EARTH","SITE":"AFETR","TLE_LINE1":"1 47124U 20088C   21242.49647457 -.00001375  00000-0 -73462-4 0  9997","CLASSIFICATION_TYPE":"U","OBJECT_TYPE":"PAYLOAD","REF_FRAME":"TEME","OBJECT_ID":"2020-088C","BSTAR":"-0.00007346200000","ECCENTRICITY":"0.00015180","ELEMENT_SET_NO":"999","MEAN_ELEMENT_THEORY":"SGP4","FILE":"3105719","LAUNCH_DATE":"2020-11-25","OBJECT_NAME":"STARLINK-1785","PERIOD":"95.594","ARG_OF_PERICENTER":"66.0543","MEAN_MOTION":"15.06374527","NORAD_CAT_ID":"47124"},{"INCLINATION":"53.0503","SEMIMAJOR_AXIS":"6677.471","PERIAPSIS":"293.725","RA_OF_ASC_NODE":"72.2837","DECAY_DATE":null,"TIME_SYSTEM":"UTC","EPHEMERIS_TYPE":"0","MEAN_MOTION_DDOT":"0.0000978200000","RCS_SIZE":"LARGE","GP_ID":"183734941","REV_AT_EPOCH":"4436","MEAN_ANOMALY":"82.6361","MEAN_MOTION_DOT":"0.00476094","APOAPSIS":"304.948","COUNTRY_CODE":"US","TLE_LINE2":"2 47125  53.0503  72.2837 0008403 277.3710  82.6361 15.91053212 44360","SITE":"AFETR","TLE_LINE1":"1 47125U 20088D   21242.78812438  .00476094  97820-4  14774-2 0  9994","CENTER_NAME":"EARTH","EPOCH":"2021-08-30T18:54:53.946432","REF_FRAME":"TEME","OBJECT_TYPE":"PAYLOAD","CLASSIFICATION_TYPE":"U","OBJECT_ID":"2020-088D","BSTAR":"0.00147740000000","FILE":"3105719","MEAN_ELEMENT_THEORY":"SGP4","LAUNCH_DATE":"2020-11-25","ELEMENT_SET_NO":"999","ECCENTRICITY":"0.00084030","NORAD_CAT_ID":"47125","MEAN_MOTION":"15.91053212","PERIOD":"90.506","ARG_OF_PERICENTER":"277.3710","OBJECT_NAME":"STARLINK-1787"},{"COUNTRY_CODE":"US","TLE_LINE2":"2 47126  53.0557 158.7251 0001633  65.7113 294.4046 15.06386207 42814","GP_ID":"183732295","REV_AT_EPOCH":"4281","MEAN_ANOMALY":"294.4046","MEAN_MOTION_DOT":"-0.00001353","APOAPSIS":"548.387","TIME_SYSTEM":"UTC","EPHEMERIS_TYPE":"0","RCS_SIZE":"LARGE","MEAN_MOTION_DDOT":"0.0000000000000","INCLINATION":"53.0557","SEMIMAJOR_AXIS":"6925.391","RA_OF_ASC_NODE":"158.7251","PERIAPSIS":"546.125","DECAY_DATE":null,"ELEMENT_SET_NO":"999","FILE":"3105635","LAUNCH_DATE":"2020-11-25","MEAN_ELEMENT_THEORY":"SGP4","ECCENTRICITY":"0.00016330","NORAD_CAT_ID":"47126","OBJECT_NAME":"STARLINK-1812","PERIOD":"95.593","MEAN_MOTION":"15.06386207","ARG_OF_PERICENTER":"65.7113","BSTAR":"-0.00007199800000","OBJECT_ID":"2020-088E","CENTER_NAME":"EARTH","SITE":"AFETR","TLE_LINE1":"1 47126U 20088E   21242.47022419 -.00001353  00000-0 -71998-4 0  9990","EPOCH":"2021-08-30T11:17:07.370016","OBJECT_TYPE":"PAYLOAD","CLASSIFICATION_TYPE":"U","REF_FRAME":"TEME"},{"OBJECT_ID":"2020-088F","TLE_LINE1":"1 47127U 20088F   21242.80123598  .00035145  00000-0  27340-3 0  9993","SITE":"AFETR","CENTER_NAME":"EARTH","EPOCH":"2021-08-30T19:13:46.788672","OBJECT_TYPE":"PAYLOAD","REF_FRAME":"TEME","CLASSIFICATION_TYPE":"U","FILE":"3105723","LAUNCH_DATE":"2020-11-25","MEAN_ELEMENT_THEORY":"SGP4","ELEMENT_SET_NO":"999","ECCENTRICITY":"0.00024330","NORAD_CAT_ID":"47127","MEAN_MOTION":"15.71430517","PERIOD":"91.636","ARG_OF_PERICENTER":"27.9348","OBJECT_NAME":"STARLINK-1836","BSTAR":"0.00027340000000","TIME_SYSTEM":"UTC","EPHEMERIS_TYPE":"0","MEAN_MOTION_DDOT":"0.0000000000000","RCS_SIZE":"LARGE","INCLINATION":"53.0535","SEMIMAJOR_AXIS":"6732.945","PERIAPSIS":"353.172","RA_OF_ASC_NODE":"99.1010","DECAY_DATE":null,"COUNTRY_CODE":"US","TLE_LINE2":"2 47127  53.0535  99.1010 0002433  27.9348 332.1799 15.71430517 43992","GP_ID":"183735281","REV_AT_EPOCH":"4399","MEAN_ANOMALY":"332.1799","MEAN_MOTION_DOT":"0.00035145","APOAPSIS":"356.448"},{"BSTAR":"0.00013393000000","LAUNCH_DATE":"2020-11-25","FILE":"3105635","MEAN_ELEMENT_THEORY":"SGP4","ELEMENT_SET_NO":"999","ECCENTRICITY":"0.00065910","NORAD_CAT_ID":"47128","PERIOD":"95.592","ARG_OF_PERICENTER":"348.0576","MEAN_MOTION":"15.06396467","OBJECT_NAME":"STARLINK-1837","SITE":"AFETR","TLE_LINE1":"1 47128U 20088G   21242.42782241  .00001712  00000-0  13393-3 0  9994","CENTER_NAME":"EARTH","EPOCH":"2021-08-30T10:16:03.856224","OBJECT_TYPE":"PAYLOAD","CLASSIFICATION_TYPE":"U","REF_FRAME":"TEME","OBJECT_ID":"2020-088G","GP_ID":"183731797","REV_AT_EPOCH":"4308","MEAN_ANOMALY":"12.0256","APOAPSIS":"551.789","MEAN_MOTION_DOT":"0.00001712","COUNTRY_CODE":"US","TLE_LINE2":"2 47128  53.0526 138.9076 0006591 348.0576  12.0256 15.06396467 43081","INCLINATION":"53.0526","SEMIMAJOR_AXIS":"6925.359","PERIAPSIS":"542.660","RA_OF_ASC_NODE":"138.9076","DECAY_DATE":null,"TIME_SYSTEM":"UTC","EPHEMERIS_TYPE":"0","MEAN_MOTION_DDOT":"0.0000000000000","RCS_SIZE":"LARGE"},{"INCLINATION":"53.0542","SEMIMAJOR_AXIS":"6925.411","PERIAPSIS":"545.952","RA_OF_ASC_NODE":"149.6797","DECAY_DATE":null,"TIME_SYSTEM":"UTC","EPHEMERIS_TYPE":"0","MEAN_MOTION_DDOT":"0.0000000000000","RCS_SIZE":"LARGE","GP_ID":"183732049","REV_AT_EPOCH":"4292","MEAN_ANOMALY":"290.1451","MEAN_MOTION_DOT":"-0.00002512","APOAPSIS":"548.600","COUNTRY_CODE":"US","TLE_LINE2":"2 47129  53.0542 149.6797 0001912  69.9743 290.1451 15.06379565 42924","SITE":"AFETR","TLE_LINE1":"1 47129U 20088H   21242.25736507 -.00002512  00000-0 -14986-3 0  9990","CENTER_NAME":"EARTH","EPOCH":"2021-08-30T06:10:36.342048","CLASSIFICATION_TYPE":"U","OBJECT_TYPE":"PAYLOAD","REF_FRAME":"TEME","OBJECT_ID":"2020-088H","BSTAR":"-0.00014986000000","FILE":"3105635","MEAN_ELEMENT_THEORY":"SGP4","LAUNCH_DATE":"2020-11-25","ELEMENT_SET_NO":"999","ECCENTRICITY":"0.00019120","NORAD_CAT_ID":"47129","PERIOD":"95.593","ARG_OF_PERICENTER":"69.9743","MEAN_MOTION":"15.06379565","OBJECT_NAME":"STARLINK-1838"},{"ECCENTRICITY":"0.00017460","LAUNCH_DATE":"2020-11-25","FILE":"3105724","MEAN_ELEMENT_THEORY":"SGP4","ELEMENT_SET_NO":"999","ARG_OF_PERICENTER":"58.5571","PERIOD":"95.594","MEAN_MOTION":"15.06371612","OBJECT_NAME":"STARLINK-1839","NORAD_CAT_ID":"47130","BSTAR":"-0.00007056600000","OBJECT_ID":"2020-088J","EPOCH":"2021-08-30T12:08:53.178720","SITE":"AFETR","TLE_LINE1":"1 47130U 20088J   21242.50617105 -.00001332  00000-0 -70566-4 0  9998","CENTER_NAME":"EARTH","OBJECT_TYPE":"PAYLOAD","REF_FRAME":"TEME","CLASSIFICATION_TYPE":"U","COUNTRY_CODE":"US","TLE_LINE2":"2 47130  53.0540 168.5586 0001746  58.5571 301.5589 15.06371612 42977","REV_AT_EPOCH":"4297","GP_ID":"183735317","APOAPSIS":"548.510","MEAN_MOTION_DOT":"-0.00001332","MEAN_ANOMALY":"301.5589","TIME_SYSTEM":"UTC","MEAN_MOTION_DDOT":"0.0000000000000","RCS_SIZE":"LARGE","EPHEMERIS_TYPE":"0","SEMIMAJOR_AXIS":"6925.436","INCLINATION":"53.0540","DECAY_DATE":null,"PERIAPSIS":"546.091","RA_OF_ASC_NODE":"168.5586"},{"ELEMENT_SET_NO":"999","MEAN_ELEMENT_THEORY":"SGP4","FILE":"3105635","LAUNCH_DATE":"2020-11-25","ECCENTRICITY":"0.00035870","NORAD_CAT_ID":"47131","OBJECT_NAME":"STARLINK-1840","PERIOD":"94.764","ARG_OF_PERICENTER":"56.2750","MEAN_MOTION":"15.19558031","BSTAR":"0.01258400000000","OBJECT_ID":"2020-088K","CENTER_NAME":"EARTH","SITE":"AFETR","TLE_LINE1":"1 47131U 20088K   21242.41047065  .00281366  00000-0  12584-1 0  9999","EPOCH":"2021-08-30T09:51:04.664160","REF_FRAME":"TEME","OBJECT_TYPE":"PAYLOAD","CLASSIFICATION_TYPE":"U","COUNTRY_CODE":"US","TLE_LINE2":"2 47131  53.0523 131.4104 0003587  56.2750 303.8586 15.19558031 43196","GP_ID":"183731048","REV_AT_EPOCH":"4319","MEAN_ANOMALY":"303.8586","APOAPSIS":"509.647","MEAN_MOTION_DOT":"0.00281366","TIME_SYSTEM":"UTC","EPHEMERIS_TYPE":"0","RCS_SIZE":"LARGE","MEAN_MOTION_DDOT":"0.0000000000000","INCLINATION":"53.0523","SEMIMAJOR_AXIS":"6885.312","RA_OF_ASC_NODE":"131.4104","PERIAPSIS":"504.708","DECAY_DATE":null}];
